{
  "type": "FeatureCollection",
  "features": [
    {
      "type": "Feature",
      "properties": {
        "ST_NM": "Maharashtra",
        "ST_PCODE": "MH"
      },
      "geometry": {
        "type": "Polygon",
        "coordinates": [[
          [72.5, 15.5], [73.5, 15.5], [74.5, 16.5], [75.5, 17.5], [76.5, 18.5],
          [77.5, 19.5], [78.5, 20.5], [79.5, 21.5], [80.5, 22.5], [81.5, 23.5],
          [81.5, 24.5], [80.5, 24.5], [79.5, 23.5], [78.5, 22.5], [77.5, 21.5],
          [76.5, 20.5], [75.5, 19.5], [74.5, 18.5], [73.5, 17.5], [72.5, 16.5],
          [72.5, 15.5]
        ]]
      }
    },
    {
      "type": "Feature",
      "properties": {
        "ST_NM": "Delhi",
        "ST_PCODE": "DL"
      },
      "geometry": {
        "type": "Polygon",
        "coordinates": [[
          [76.8, 28.4], [77.4, 28.4], [77.4, 28.9], [76.8, 28.9], [76.8, 28.4]
        ]]
      }
    },
    {
      "type": "Feature",
      "properties": {
        "ST_NM": "Karnataka",
        "ST_PCODE": "KA"
      },
      "geometry": {
        "type": "Polygon",
        "coordinates": [[
          [74.0, 11.5], [75.0, 11.5], [76.0, 12.5], [77.0, 13.5], [78.0, 14.5],
          [79.0, 15.5], [80.0, 16.5], [81.0, 17.5], [81.0, 18.5], [80.0, 18.5],
          [79.0, 17.5], [78.0, 16.5], [77.0, 15.5], [76.0, 14.5], [75.0, 13.5],
          [74.0, 12.5], [74.0, 11.5]
        ]]
      }
    },
    {
      "type": "Feature",
      "properties": {
        "ST_NM": "Gujarat",
        "ST_PCODE": "GJ"
      },
      "geometry": {
        "type": "Polygon",
        "coordinates": [[
          [68.0, 20.0], [69.0, 20.0], [70.0, 21.0], [71.0, 22.0], [72.0, 23.0],
          [73.0, 24.0], [74.0, 25.0], [74.0, 26.0], [73.0, 26.0], [72.0, 25.0],
          [71.0, 24.0], [70.0, 23.0], [69.0, 22.0], [68.0, 21.0], [68.0, 20.0]
        ]]
      }
    },
    {
      "type": "Feature",
      "properties": {
        "ST_NM": "Rajasthan",
        "ST_PCODE": "RJ"
      },
      "geometry": {
        "type": "Polygon",
        "coordinates": [[
          [69.0, 23.0], [70.0, 23.0], [71.0, 24.0], [72.0, 25.0], [73.0, 26.0],
          [74.0, 27.0], [75.0, 28.0], [76.0, 29.0], [77.0, 30.0], [78.0, 31.0],
          [78.0, 32.0], [77.0, 32.0], [76.0, 31.0], [75.0, 30.0], [74.0, 29.0],
          [73.0, 28.0], [72.0, 27.0], [71.0, 26.0], [70.0, 25.0], [69.0, 24.0],
          [69.0, 23.0]
        ]]
      }
    },
    {
      "type": "Feature",
      "properties": {
        "ST_NM": "Madhya Pradesh",
        "ST_PCODE": "MP"
      },
      "geometry": {
        "type": "Polygon",
        "coordinates": [[
          [74.0, 21.0], [75.0, 21.0], [76.0, 22.0], [77.0, 23.0], [78.0, 24.0],
          [79.0, 25.0], [80.0, 26.0], [81.0, 27.0], [82.0, 28.0], [83.0, 29.0],
          [83.0, 30.0], [82.0, 30.0], [81.0, 29.0], [80.0, 28.0], [79.0, 27.0],
          [78.0, 26.0], [77.0, 25.0], [76.0, 24.0], [75.0, 23.0], [74.0, 22.0],
          [74.0, 21.0]
        ]]
      }
    },
    {
      "type": "Feature",
      "properties": {
        "ST_NM": "Tamil Nadu",
        "ST_PCODE": "TN"
      },
      "geometry": {
        "type": "Polygon",
        "coordinates": [[
          [76.0, 8.0], [77.0, 8.0], [78.0, 9.0], [79.0, 10.0], [80.0, 11.0],
          [81.0, 12.0], [82.0, 13.0], [82.0, 14.0], [81.0, 14.0], [80.0, 13.0],
          [79.0, 12.0], [78.0, 11.0], [77.0, 10.0], [76.0, 9.0], [76.0, 8.0]
        ]]
      }
    },
    {
      "type": "Feature",
      "properties": {
        "ST_NM": "Uttar Pradesh",
        "ST_PCODE": "UP"
      },
      "geometry": {
        "type": "Polygon",
        "coordinates": [[
          [77.0, 24.0], [78.0, 24.0], [79.0, 25.0], [80.0, 26.0], [81.0, 27.0],
          [82.0, 28.0], [83.0, 29.0], [84.0, 30.0], [85.0, 31.0], [86.0, 32.0],
          [86.0, 33.0], [85.0, 33.0], [84.0, 32.0], [83.0, 31.0], [82.0, 30.0],
          [81.0, 29.0], [80.0, 28.0], [79.0, 27.0], [78.0, 26.0], [77.0, 25.0],
          [77.0, 24.0]
        ]]
      }
    },
    {
      "type": "Feature",
      "properties": {
        "ST_NM": "West Bengal",
        "ST_PCODE": "WB"
      },
      "geometry": {
        "type": "Polygon",
        "coordinates": [[
          [85.0, 21.0], [86.0, 21.0], [87.0, 22.0], [88.0, 23.0], [89.0, 24.0],
          [90.0, 25.0], [90.0, 26.0], [89.0, 26.0], [88.0, 25.0], [87.0, 24.0],
          [86.0, 23.0], [85.0, 22.0], [85.0, 21.0]
        ]]
      }
    },
    {
      "type": "Feature",
      "properties": {
        "ST_NM": "Haryana",
        "ST_PCODE": "HR"
      },
      "geometry": {
        "type": "Polygon",
        "coordinates": [[
          [74.0, 27.5], [75.0, 27.5], [76.0, 28.5], [77.0, 29.5], [78.0, 30.5],
          [78.0, 31.5], [77.0, 31.5], [76.0, 30.5], [75.0, 29.5], [74.0, 28.5],
          [74.0, 27.5]
        ]]
      }
    },
    {
      "type": "Feature",
      "properties": {
        "ST_NM": "Telangana",
        "ST_PCODE": "TG"
      },
      "geometry": {
        "type": "Polygon",
        "coordinates": [[
          [77.0, 15.5], [78.0, 15.5], [79.0, 16.5], [80.0, 17.5], [81.0, 18.5],
          [81.0, 19.5], [80.0, 19.5], [79.0, 18.5], [78.0, 17.5], [77.0, 16.5],
          [77.0, 15.5]
        ]]
      }
    },
    {
      "type": "Feature",
      "properties": {
        "ST_NM": "Andhra Pradesh",
        "ST_PCODE": "AP"
      },
      "geometry": {
        "type": "Polygon",
        "coordinates": [[
          [76.5, 12.5], [77.5, 12.5], [78.5, 13.5], [79.5, 14.5], [80.5, 15.5],
          [81.5, 16.5], [82.5, 17.5], [82.5, 18.5], [81.5, 18.5], [80.5, 17.5],
          [79.5, 16.5], [78.5, 15.5], [77.5, 14.5], [76.5, 13.5], [76.5, 12.5]
        ]]
      }
    },
    {
      "type": "Feature",
      "properties": {
        "ST_NM": "Punjab",
        "ST_PCODE": "PB"
      },
      "geometry": {
        "type": "Polygon",
        "coordinates": [[
          [73.5, 29.5], [74.5, 29.5], [75.5, 30.5], [76.5, 31.5], [77.5, 32.5],
          [77.5, 33.5], [76.5, 33.5], [75.5, 32.5], [74.5, 31.5], [73.5, 30.5],
          [73.5, 29.5]
        ]]
      }
    },
    {
      "type": "Feature",
      "properties": {
        "ST_NM": "Kerala",
        "ST_PCODE": "KL"
      },
      "geometry": {
        "type": "Polygon",
        "coordinates": [[
          [74.5, 8.0], [75.5, 8.0], [76.5, 9.0], [77.5, 10.0], [78.5, 11.0],
          [78.5, 12.0], [77.5, 12.0], [76.5, 11.0], [75.5, 10.0], [74.5, 9.0],
          [74.5, 8.0]
        ]]
      }
    },
    {
      "type": "Feature",
      "properties": {
        "ST_NM": "Odisha",
        "ST_PCODE": "OR"
      },
      "geometry": {
        "type": "Polygon",
        "coordinates": [[
          [81.0, 17.5], [82.0, 17.5], [83.0, 18.5], [84.0, 19.5], [85.0, 20.5],
          [86.0, 21.5], [87.0, 22.5], [87.0, 23.5], [86.0, 23.5], [85.0, 22.5],
          [84.0, 21.5], [83.0, 20.5], [82.0, 19.5], [81.0, 18.5], [81.0, 17.5]
        ]]
      }
    },
    {
      "type": "Feature",
      "properties": {
        "ST_NM": "Jharkhand",
        "ST_PCODE": "JH"
      },
      "geometry": {
        "type": "Polygon",
        "coordinates": [[
          [83.0, 21.5], [84.0, 21.5], [85.0, 22.5], [86.0, 23.5], [87.0, 24.5],
          [87.0, 25.5], [86.0, 25.5], [85.0, 24.5], [84.0, 23.5], [83.0, 22.5],
          [83.0, 21.5]
        ]]
      }
    },
    {
      "type": "Feature",
      "properties": {
        "ST_NM": "Chhattisgarh",
        "ST_PCODE": "CT"
      },
      "geometry": {
        "type": "Polygon",
        "coordinates": [[
          [80.0, 17.5], [81.0, 17.5], [82.0, 18.5], [83.0, 19.5], [84.0, 20.5],
          [85.0, 21.5], [85.0, 22.5], [84.0, 22.5], [83.0, 21.5], [82.0, 20.5],
          [81.0, 19.5], [80.0, 18.5], [80.0, 17.5]
        ]]
      }
    },
    {
      "type": "Feature",
      "properties": {
        "ST_NM": "Uttarakhand",
        "ST_PCODE": "UT"
      },
      "geometry": {
        "type": "Polygon",
        "coordinates": [[
          [77.5, 28.5], [78.5, 28.5], [79.5, 29.5], [80.5, 30.5], [81.5, 31.5],
          [81.5, 32.5], [80.5, 32.5], [79.5, 31.5], [78.5, 30.5], [77.5, 29.5],
          [77.5, 28.5]
        ]]
      }
    },
    {
      "type": "Feature",
      "properties": {
        "ST_NM": "Himachal Pradesh",
        "ST_PCODE": "HP"
      },
      "geometry": {
        "type": "Polygon",
        "coordinates": [[
          [75.5, 30.0], [76.5, 30.0], [77.5, 31.0], [78.5, 32.0], [79.5, 33.0],
          [79.5, 34.0], [78.5, 34.0], [77.5, 33.0], [76.5, 32.0], [75.5, 31.0],
          [75.5, 30.0]
        ]]
      }
    },
    {
      "type": "Feature",
      "properties": {
        "ST_NM": "Jammu and Kashmir",
        "ST_PCODE": "JK"
      },
      "geometry": {
        "type": "Polygon",
        "coordinates": [[
          [73.5, 32.0], [74.5, 32.0], [75.5, 33.0], [76.5, 34.0], [77.5, 35.0],
          [78.5, 36.0], [78.5, 37.0], [77.5, 37.0], [76.5, 36.0], [75.5, 35.0],
          [74.5, 34.0], [73.5, 33.0], [73.5, 32.0]
        ]]
      }
    },
    {
      "type": "Feature",
      "properties": {
        "ST_NM": "Bihar",
        "ST_PCODE": "BR"
      },
      "geometry": {
        "type": "Polygon",
        "coordinates": [[
          [83.0, 24.0], [84.0, 24.0], [85.0, 25.0], [86.0, 26.0], [87.0, 27.0],
          [88.0, 28.0], [88.0, 29.0], [87.0, 29.0], [86.0, 28.0], [85.0, 27.0],
          [84.0, 26.0], [83.0, 25.0], [83.0, 24.0]
        ]]
      }
    },
    {
      "type": "Feature",
      "properties": {
        "ST_NM": "Assam",
        "ST_PCODE": "AS"
      },
      "geometry": {
        "type": "Polygon",
        "coordinates": [[
          [89.0, 24.0], [90.0, 24.0], [91.0, 25.0], [92.0, 26.0], [93.0, 27.0],
          [94.0, 28.0], [94.0, 29.0], [93.0, 29.0], [92.0, 28.0], [91.0, 27.0],
          [90.0, 26.0], [89.0, 25.0], [89.0, 24.0]
        ]]
      }
    }
  ]
}